OBJECT_NAME,OBJECT_ID,EPOCH,MEAN_MOTION,ECCENTRICITY,INCLINATION,RA_OF_ASC_NODE,ARG_OF_PERICENTER,MEAN_ANOMALY,EPHEMERIS_TYPE,CLASSIFICATION_TYPE,NORAD_CAT_ID,ELEMENT_SET_NO,REV_AT_EPOCH,BSTAR,MEAN_MOTION_DOT,MEAN_MOTION_DDOT
QIANFAN-147,2026-108C,2026-06-08T16:55:03.048096,14.12537241,.001972,89.0113,23.1609,135.0703,225.2083,0,U,69106,999,314,-.10852E+1,-.1871776E-1,0
QIANFAN-148,2026-108D,2026-06-08T16:45:30.036384,14.13497611,.0018087,89.0113,23.1600,142.6749,217.5698,0,U,69107,999,314,-.10776E+1,-.1889952E-1,0
QIANFAN-149,2026-108E,2026-06-08T16:40:36.045696,14.14060289,.0016664,89.0115,23.1600,145.1153,215.1130,0,U,69108,999,314,-.10625E+1,-.1882839E-1,0
QIANFAN-150,2026-108F,2026-06-08T18:11:34.014048,14.18306212,.0016046,89.0121,23.1510,143.5443,216.6842,0,U,69109,999,315,.32154E-4,.81E-6,0
QIANFAN-151,2026-108G,2026-06-08T18:02:35.909664,14.18801931,.001616,89.0121,23.1499,142.1485,218.0844,0,U,69110,999,315,.32082E-4,.81E-6,0
QIANFAN-152,2026-108H,2026-06-08T16:11:38.247936,14.15042162,.0016282,89.0113,23.1570,154.0244,206.1764,0,U,69111,999,314,-.10759E+1,-.1937362E-1,0
QIANFAN-153,2026-108J,2026-06-08T19:28:22.089792,14.19642642,.0016579,89.0117,23.1396,141.8417,218.3950,0,U,69112,999,316,.1172E-3,.262E-5,0
QIANFAN-154,2026-108K,2026-06-08T17:34:39.612288,14.15848308,.0019157,89.0115,23.1476,152.7202,207.4996,0,U,69113,999,315,-.10502E+1,-.1921589E-1,0
QIANFAN-155,2026-108L,2026-06-08T17:41:32.430624,14.19535962,.0016942,89.0121,23.1479,140.3245,219.9188,0,U,69114,999,315,.3375E-4,.86E-6,0
QIANFAN-156,2026-108M,2026-06-08T17:28:00.369120,14.20958444,.0016572,89.0124,23.1472,141.4866,218.7510,0,U,69115,999,315,.34708E-4,.9E-6,0
QIANFAN-157,2026-108N,2026-06-08T11:42:40.386816,14.17079510,.00170442,89.0115,23.1659,164.8203,195.3501,0,U,69116,999,312,-.94967612E+0,-.1766676E-1,0
QIANFAN-158,2026-108P,2026-06-08T18:58:33.768768,14.21847897,.0016525,89.0120,23.1372,142.5976,217.6369,0,U,69117,999,316,.34585E-4,.91E-6,0
QIANFAN-159,2026-108Q,2026-06-08T18:51:57.286080,14.22294242,.0016241,89.0119,23.1363,142.4891,217.7437,0,U,69118,999,316,.29369E-4,.8E-6,0
QIANFAN-160,2026-108R,2026-06-08T17:03:41.779008,14.18589647,.0013501,89.0116,23.1443,161.7697,198.3979,0,U,69119,999,315,-.10115E+1,-.1944255E-1,0
QIANFAN-161,2026-108S,2026-06-08T16:58:02.333280,14.19245194,.001468,89.0116,23.1439,158.2514,201.9302,0,U,69120,999,315,-.10156E+1,-.1974283E-1,0
QIANFAN-162,2026-108T,2026-06-08T16:53:56.552064,14.19905299,.0014584,89.0115,23.1432,154.4129,205.7786,0,U,69121,999,315,-.99391E+0,-.1957442E-1,0
SMILE,2026-109A,2026-05-24T15:40:35.120928,14.57062785,.00091232,70.0007,229.2745,259.5159,100.4951,0,U,69123,999,80,-.42378883E-3,-.1976E-4,0
STARLINK-37726,2026-110A,2026-06-08T20:00:03.000384,15.49099243,.0001577,97.2859,355.9746,102.0955,242.3640,0,U,69124,999,431,.15913E-2,.87147E-3,0
STARLINK-37722,2026-110B,2026-06-08T20:00:03.000384,15.52512838,.0001067,97.2847,356.1355,92.2098,267.1676,0,U,69125,999,436,-.38238E-1,-.2082845E-1,0
STARLINK-37715,2026-110C,2026-06-08T20:00:03.000384,15.62139385,.0001913,97.2845,356.2021,84.9552,78.0532,0,U,69126,999,431,-.33251E-1,-.2533094E-1,0
STARLINK-37706,2026-110D,2026-06-08T20:00:03.000384,15.62507991,.0001981,97.2848,356.2060,94.9810,76.3958,0,U,69127,999,431,-.3296E-1,-.2545605E-1,0
STARLINK-37723,2026-110E,2026-06-08T20:00:03.000384,15.62874773,.0002048,97.2847,356.2101,95.2353,85.4083,0,U,69128,999,431,-.32581E-1,-.2551965E-1,0
STARLINK-37720,2026-110F,2026-06-08T20:00:03.000384,15.49125090,.0001715,97.2859,355.9945,91.3585,301.9643,0,U,69129,999,431,.16031E-2,.87878E-3,0
STARLINK-37533,2026-110G,2026-06-08T19:07:32.923776,15.64749002,.0001427,97.2852,356.1860,115.0943,245.0464,0,U,69130,999,431,-.13046E-1,-.1144461E-1,0
STARLINK-37530,2026-110H,2026-06-08T19:05:23.098272,15.65472984,.0003278,97.2848,356.1878,164.8131,195.3228,0,U,69131,999,431,-.48517E-2,-.458285E-2,0
STARLINK-37660,2026-110J,2026-06-08T20:00:03.000384,15.56886969,.0001348,97.2851,356.1626,80.9403,341.1811,0,U,69132,999,431,-.28906E-1,-.1840647E-1,0
STARLINK-37633,2026-110K,2026-06-08T20:00:03.000384,15.58037191,.000162,97.2847,356.1698,95.0446,352.1136,0,U,69133,999,431,-.28068E-1,-.1863509E-1,0
STARLINK-37361,2026-110L,2026-06-08T20:00:03.000384,15.65367239,.000173,97.2850,356.2346,98.4124,138.8940,0,U,69134,999,431,-.29534E-1,-.2553596E-1,0
STARLINK-37372,2026-110M,2026-06-08T20:00:03.000384,15.56105857,.0001709,97.2847,356.1902,81.5124,41.0658,0,U,69135,999,431,-.41275E-1,-.250204E-1,0
