QIANFAN-147             
1 69106U 26108C   26159.70489639 -.01871776  00000+0 -10852+1 0  9992
2 69106  89.0113  23.1609 0019720 135.0703 225.2083 14.12537241  3145
QIANFAN-148             
1 69107U 26108D   26159.69826431 -.01889952  00000+0 -10776+1 0  9996
2 69107  89.0113  23.1600 0018087 142.6749 217.5698 14.13497611  3149
QIANFAN-149             
1 69108U 26108E   26159.69486164 -.01882839  00000+0 -10625+1 0  9992
2 69108  89.0115  23.1600 0016664 145.1153 215.1130 14.14060289  3141
QIANFAN-150             
1 69109U 26108F   26159.75803257  .00000081  00000+0  32154-4 0  9999
2 69109  89.0121  23.1510 0016046 143.5443 216.6842 14.18306212  3157
QIANFAN-151             
1 69110U 26108G   26159.75180451  .00000081  00000+0  32082-4 0  9995
2 69110  89.0121  23.1499 0016160 142.1485 218.0844 14.18801931  3159
QIANFAN-152             
1 69111U 26108H   26159.67474824 -.01937362  00000+0 -10759+1 0  9994
2 69111  89.0113  23.1570 0016282 154.0244 206.1764 14.15042162  3149
QIANFAN-153             
1 69112U 26108J   26159.81136678  .00000262  00000+0  11720-3 0  9992
2 69112  89.0117  23.1396 0016579 141.8417 218.3950 14.19642642  3162
QIANFAN-154             
1 69113U 26108K   26159.73240292 -.01921589  00000+0 -10502+1 0  9993
2 69113  89.0115  23.1476 0019157 152.7202 207.4996 14.15848308  3159
QIANFAN-155             
1 69114U 26108L   26159.73718091  .00000086  00000+0  33750-4 0  9992
2 69114  89.0121  23.1479 0016942 140.3245 219.9188 14.19535962  3153
QIANFAN-156             
1 69115U 26108M   26159.72778205  .00000090  00000+0  34708-4 0  9994
2 69115  89.0124  23.1472 0016572 141.4866 218.7510 14.20958444  3152
QIANFAN-157             
1 69116U 26108N   26159.48796744 -.01766676  00000+0 -94968+0 0  9997
2 69116  89.0115  23.1659 0017044 164.8203 195.3501 14.17079510  3120
QIANFAN-158             
1 69117U 26108P   26159.79066862  .00000091  00000+0  34585-4 0  9996
2 69117  89.0120  23.1372 0016525 142.5976 217.6369 14.21847897  3162
QIANFAN-159             
1 69118U 26108Q   26159.78607970  .00000080  00000+0  29369-4 0  9999
2 69118  89.0119  23.1363 0016241 142.4891 217.7437 14.22294242  3169
QIANFAN-160             
1 69119U 26108R   26159.71090022 -.01944255  00000+0 -10115+1 0  9996
2 69119  89.0116  23.1443 0013501 161.7697 198.3979 14.18589647  3155
QIANFAN-161             
1 69120U 26108S   26159.70697145 -.01974283  00000+0 -10156+1 0  9995
2 69120  89.0116  23.1439 0014680 158.2514 201.9302 14.19245194  3158
QIANFAN-162             
1 69121U 26108T   26159.70412676 -.01957442  00000+0 -99391+0 0  9995
2 69121  89.0115  23.1432 0014584 154.4129 205.7786 14.19905299  3151
SMILE                   
1 69123U 26109A   26144.65318427 -.00001976  00000+0 -42379-3 0  9994
2 69123  70.0007 229.2745 0009123 259.5159 100.4951 14.57062785   802
STARLINK-37726          
1 69124U 26110A   26159.83336806  .00087147  00000+0  15913-2 0  9999
2 69124  97.2859 355.9746 0001577 102.0955 242.3640 15.49099243  4310
STARLINK-37722          
1 69125U 26110B   26159.83336806 -.02082845  00000+0 -38238-1 0  9998
2 69125  97.2847 356.1355 0001067  92.2098 267.1676 15.52512838  4362
STARLINK-37715          
1 69126U 26110C   26159.83336806 -.02533094  00000+0 -33251-1 0  9996
2 69126  97.2845 356.2021 0001913  84.9552  78.0532 15.62139385  4313
STARLINK-37706          
1 69127U 26110D   26159.83336806 -.02545605  00000+0 -32960-1 0  9994
2 69127  97.2848 356.2060 0001981  94.9810  76.3958 15.62507991  4318
STARLINK-37723          
1 69128U 26110E   26159.83336806 -.02551965  00000+0 -32581-1 0  9990
2 69128  97.2847 356.2101 0002048  95.2353  85.4083 15.62874773  4310
STARLINK-37720          
1 69129U 26110F   26159.83336806  .00087878  00000+0  16031-2 0  9997
2 69129  97.2859 355.9945 0001715  91.3585 301.9643 15.49125090  4314
STARLINK-37533          
1 69130U 26110G   26159.79690884 -.01144461  00000+0 -13046-1 0  9990
2 69130  97.2852 356.1860 0001427 115.0943 245.0464 15.64749002  4311
STARLINK-37530          
1 69131U 26110H   26159.79540623 -.00458285  00000+0 -48517-2 0  9999
2 69131  97.2848 356.1878 0003278 164.8131 195.3228 15.65472984  4311
STARLINK-37660          
1 69132U 26110J   26159.83336806 -.01840647  00000+0 -28906-1 0  9998
2 69132  97.2851 356.1626 0001348  80.9403 341.1811 15.56886969  4314
STARLINK-37633          
1 69133U 26110K   26159.83336806 -.01863509  00000+0 -28068-1 0  9990
2 69133  97.2847 356.1698 0001620  95.0446 352.1136 15.58037191  4315
STARLINK-37361          
1 69134U 26110L   26159.83336806 -.02553596  00000+0 -29534-1 0  9993
2 69134  97.2850 356.2346 0001730  98.4124 138.8940 15.65367239  4312
STARLINK-37372          
1 69135U 26110M   26159.83336806 -.02502040  00000+0 -41275-1 0  9998
2 69135  97.2847 356.1902 0001709  81.5124  41.0658 15.56105857  4312
